QIANFAN-81              
1 63167U 25046J   25339.97145798  .00000187  00000+0  27001-3 0  9990
2 63167  88.9756 320.5727 0015854 134.7340 225.5104 13.51000060 46576
QIANFAN-82              
1 63168U 25046K   25339.93131062  .00000138  00000+0  19540-3 0  9991
2 63168  88.9756 320.6209 0013786 141.3205 218.8936 13.50973603 46556
QIANFAN-83              
1 63169U 25046L   25339.93992166  .00000186  00000+0  22475-3 0  9996
2 63169  88.9757 320.4096 0015470 128.5737 231.6809 13.61971931 46678
QIANFAN-84              
1 63170U 25046M   25339.95916992  .00000076  00000+0  99367-4 0  9996
2 63170  88.9755 320.7507 0016829 139.1928 221.0487 13.50985183 46483
QIANFAN-85              
1 63171U 25046N   25339.95587638  .00000183  00000+0  26387-3 0  9998
2 63171  88.9755 320.6227 0014170 140.2966 219.9226 13.50974096 46550
QIANFAN-86              
1 63172U 25046P   25339.96420397  .00000167  00000+0  23941-3 0  9993
2 63172  88.9758 320.4838 0011947 143.0434 217.1543 13.50973985 46637
QIANFAN-87              
1 63173U 25046Q   25339.93552404  .00000112  00000+0  15522-3 0  9992
2 63173  88.9753 320.5988 0012730 139.2290 220.9817 13.50972190 46563
QIANFAN-88              
1 63174U 25046R   25339.95188425  .00000160  00000+0  22869-3 0  9998
2 63174  88.9756 320.5514 0012896 146.7852 213.4111 13.50978530 46593
